{
    "links": {
        "self": "http://www.neowsapp.com/rest/v1/neo/3289125?api_key=iIulBulltgU6a56xZRHN4H3l9WmuAYTsLGpBGhQ2"
    },
    "id": "3289125",
    "neo_reference_id": "3289125",
    "name": "(2005 QK76)",
    "designation": "2005 QK76",
    "nasa_jpl_url": "http://ssd.jpl.nasa.gov/sbdb.cgi?sstr=3289125",
    "absolute_magnitude_h": 25.1,
    "estimated_diameter": {
        "kilometers": {
            "estimated_diameter_min": 0.0253837029,
            "estimated_diameter_max": 0.0567596853
        },
        "meters": {
            "estimated_diameter_min": 25.3837029364,
            "estimated_diameter_max": 56.7596852866
        },
        "miles": {
            "estimated_diameter_min": 0.0157726969,
            "estimated_diameter_max": 0.0352688224
        },
        "feet": {
            "estimated_diameter_min": 83.279867942,
            "estimated_diameter_max": 186.2194458756
        }
    },
    "is_potentially_hazardous_asteroid": false,
    "close_approach_data": [
        {
            "close_approach_date": "2005-08-27",
            "close_approach_date_full": "2005-Aug-27 01:13",
            "epoch_date_close_approach": 1125105180000,
            "relative_velocity": {
                "kilometers_per_second": "19.1604716008",
                "kilometers_per_hour": "68977.6977629063",
                "miles_per_hour": "42860.0589238458"
            },
            "miss_distance": {
                "astronomical": "0.0323639202",
                "lunar": "12.5895649578",
                "kilometers": "4841573.526769974",
                "miles": "3008414.2875106812"
            },
            "orbiting_body": "Earth"
        }
    ],
    "orbital_data": {
        "orbit_id": "8",
        "orbit_determination_date": "2017-04-06 09:10:37",
        "first_observation_date": "2005-08-30",
        "last_observation_date": "2005-08-31",
        "data_arc_in_days": 1,
        "observations_used": 14,
        "orbit_uncertainty": "9",
        "minimum_orbit_intersection": ".0017792",
        "jupiter_tisserand_invariant": "4.540",
        "epoch_osculation": "2453613.5",
        "eccentricity": ".5177039966575181",
        "semi_major_axis": "1.397845994894943",
        "inclination": "22.87452825951357",
        "ascending_node_longitude": "337.589856501927",
        "orbital_period": "603.6530740039211",
        "perihelion_distance": ".6741755366261264",
        "perihelion_argument": "266.1103169460299",
        "aphelion_distance": "2.12151645316376",
        "perihelion_time": "2453552.815384359130",
        "mean_anomaly": "36.19042554659681",
        "mean_motion": ".5963690329814532",
        "equinox": "J2000",
        "orbit_class": {
            "orbit_class_type": "APO",
            "orbit_class_description": "Near-Earth asteroid orbits which cross the Earth’s orbit similar to that of 1862 Apollo",
            "orbit_class_range": "a (semi-major axis) > 1.0 AU; q (perihelion) < 1.017 AU"
        }
    },
    "is_sentry_object": false
}